{
  "type": "FeatureCollection",
  "features": [
    {
      "type": "Feature",
      "properties": {
        "norad_id": 36828,
        "name": "BEIDOU-2 IGSO-1 (C06)",
        "group": "beidou",
        "lat": -23.99189697823315,
        "lon": 3.19707250230398,
        "alt_km": 35573.77932246045,
        "timestamp": "2025-12-26T11:25:45.460609+00:00",
        "meta_object_name": "BEIDOU-2 IGSO-1 (C06)",
        "meta_object_id": "2010-036A",
        "meta_epoch": "2025-12-25T21:06:51.904224",
        "meta_mean_motion": 1.00272533,
        "meta_eccentricity": 0.00515074,
        "meta_inclination": 54.2892,
        "meta_ra_of_asc_node": 164.5291,
        "meta_arg_of_pericenter": 215.7944,
        "meta_mean_anomaly": 138.9488,
        "meta_ephemeris_type": 0,
        "meta_classification_type": "U",
        "meta_norad_cat_id": 36828,
        "meta_element_set_no": 999,
        "meta_rev_at_epoch": 5635,
        "meta_bstar": 0,
        "meta_mean_motion_dot": -5.2e-07,
        "meta_mean_motion_ddot": 0,
        "tle_line1": "1 36828U 10036A   25359.87976741 -.00000052  00000+0  00000+0 0  9996",
        "tle_line2": "2 36828  54.2892 164.5291 0051507 215.7944 138.9488  1.00272533 56350"
      },
      "geometry": {
        "type": "Point",
        "coordinates": [
          3.19707250230398,
          -23.99189697823315
        ]
      }
    },
    {
      "type": "Feature",
      "properties": {
        "norad_id": 37210,
        "name": "BEIDOU-2 G4 (C04)",
        "group": "beidou",
        "lat": -0.16087793107674703,
        "lon": 66.77674826004481,
        "alt_km": 35828.456212275756,
        "timestamp": "2025-12-26T11:25:45.460631+00:00",
        "meta_object_name": "BEIDOU-2 G4 (C04)",
        "meta_object_id": "2010-057A",
        "meta_epoch": "2025-12-26T05:23:59.678592",
        "meta_mean_motion": 1.00271369,
        "meta_eccentricity": 0.001045,
        "meta_inclination": 3.2158,
        "meta_ra_of_asc_node": 69.8869,
        "meta_arg_of_pericenter": 194.0651,
        "meta_mean_anomaly": 72.1025,
        "meta_ephemeris_type": 0,
        "meta_classification_type": "U",
        "meta_norad_cat_id": 37210,
        "meta_element_set_no": 999,
        "meta_rev_at_epoch": 5555,
        "meta_bstar": 0,
        "meta_mean_motion_dot": -9.1e-07,
        "meta_mean_motion_ddot": 0,
        "tle_line1": "1 37210U 10057A   25360.22499628 -.00000091  00000+0  00000+0 0  9993",
        "tle_line2": "2 37210   3.2158  69.8869 0010450 194.0651  72.1025  1.00271369 55552"
      },
      "geometry": {
        "type": "Point",
        "coordinates": [
          66.77674826004481,
          -0.16087793107674703
        ]
      }
    },
    {
      "type": "Feature",
      "properties": {
        "norad_id": 37256,
        "name": "BEIDOU-2 IGSO-2 (C07)",
        "group": "beidou",
        "lat": 46.893592395500875,
        "lon": 19.057214046416686,
        "alt_km": 35865.59861628291,
        "timestamp": "2025-12-26T11:25:45.460644+00:00",
        "meta_object_name": "BEIDOU-2 IGSO-2 (C07)",
        "meta_object_id": "2010-068A",
        "meta_epoch": "2025-12-26T05:49:55.295904",
        "meta_mean_motion": 1.00282085,
        "meta_eccentricity": 0.0048328,
        "meta_inclination": 47.8612,
        "meta_ra_of_asc_node": 273.9839,
        "meta_arg_of_pericenter": 216.056,
        "meta_mean_anomaly": 160.5314,
        "meta_ephemeris_type": 0,
        "meta_classification_type": "U",
        "meta_norad_cat_id": 37256,
        "meta_element_set_no": 999,
        "meta_rev_at_epoch": 5506,
        "meta_bstar": 0,
        "meta_mean_motion_dot": -2e-06,
        "meta_mean_motion_ddot": 0,
        "tle_line1": "1 37256U 10068A   25360.24300111 -.00000200  00000+0  00000+0 0  9997",
        "tle_line2": "2 37256  47.8612 273.9839 0048328 216.0560 160.5314  1.00282085 55061"
      },
      "geometry": {
        "type": "Point",
        "coordinates": [
          19.057214046416686,
          46.893592395500875
        ]
      }
    },
    {
      "type": "Feature",
      "properties": {
        "norad_id": 37384,
        "name": "BEIDOU-2 IGSO-3 (C08)",
        "group": "beidou",
        "lat": -24.33712109317056,
        "lon": 27.99238464292856,
        "alt_km": 35911.34364550686,
        "timestamp": "2025-12-26T11:25:45.460656+00:00",
        "meta_object_name": "BEIDOU-2 IGSO-3 (C08)",
        "meta_object_id": "2011-013A",
        "meta_epoch": "2025-12-24T13:36:08.179776",
        "meta_mean_motion": 1.00268125,
        "meta_eccentricity": 0.00352821,
        "meta_inclination": 62.1584,
        "meta_ra_of_asc_node": 41.8043,
        "meta_arg_of_pericenter": 187.8377,
        "meta_mean_anomaly": 174.9924,
        "meta_ephemeris_type": 0,
        "meta_classification_type": "U",
        "meta_norad_cat_id": 37384,
        "meta_element_set_no": 999,
        "meta_rev_at_epoch": 5391,
        "meta_bstar": 0,
        "meta_mean_motion_dot": -1.63e-06,
        "meta_mean_motion_ddot": 0,
        "tle_line1": "1 37384U 11013A   25358.56676134 -.00000163  00000+0  00000+0 0  9991",
        "tle_line2": "2 37384  62.1584  41.8043 0035282 187.8377 174.9924  1.00268125 53913"
      },
      "geometry": {
        "type": "Point",
        "coordinates": [
          27.99238464292856,
          -24.33712109317056
        ]
      }
    },
    {
      "type": "Feature",
      "properties": {
        "norad_id": 37763,
        "name": "BEIDOU-2 IGSO-4 (C09)",
        "group": "beidou",
        "lat": -10.742703422074793,
        "lon": -5.0227074468912605,
        "alt_km": 35279.91411263553,
        "timestamp": "2025-12-26T11:25:45.460667+00:00",
        "meta_object_name": "BEIDOU-2 IGSO-4 (C09)",
        "meta_object_id": "2011-038A",
        "meta_epoch": "2025-12-21T10:06:26.864064",
        "meta_mean_motion": 1.00280083,
        "meta_eccentricity": 0.01491557,
        "meta_inclination": 54.5854,
        "meta_ra_of_asc_node": 167.2693,
        "meta_arg_of_pericenter": 230.0944,
        "meta_mean_anomaly": 299.1265,
        "meta_ephemeris_type": 0,
        "meta_classification_type": "U",
        "meta_norad_cat_id": 37763,
        "meta_element_set_no": 999,
        "meta_rev_at_epoch": 5286,
        "meta_bstar": 0,
        "meta_mean_motion_dot": 5.9e-07,
        "meta_mean_motion_ddot": 0,
        "tle_line1": "1 37763U 11038A   25355.42114426  .00000059  00000+0  00000+0 0  9995",
        "tle_line2": "2 37763  54.5854 167.2693 0149155 230.0944 299.1265  1.00280083 52867"
      },
      "geometry": {
        "type": "Point",
        "coordinates": [
          -5.0227074468912605,
          -10.742703422074793
        ]
      }
    },
    {
      "type": "Feature",
      "properties": {
        "norad_id": 37948,
        "name": "BEIDOU-2 IGSO-5 (C10)",
        "group": "beidou",
        "lat": 47.85463521901379,
        "lon": -2.6089709711382407,
        "alt_km": 36107.470137377786,
        "timestamp": "2025-12-26T11:25:45.460679+00:00",
        "meta_object_name": "BEIDOU-2 IGSO-5 (C10)",
        "meta_object_id": "2011-073A",
        "meta_epoch": "2025-12-25T17:46:48.300384",
        "meta_mean_motion": 1.00288091,
        "meta_eccentricity": 0.01096686,
        "meta_inclination": 47.9959,
        "meta_ra_of_asc_node": 273.6993,
        "meta_arg_of_pericenter": 222.1113,
        "meta_mean_anomaly": 319.0848,
        "meta_ephemeris_type": 0,
        "meta_classification_type": "U",
        "meta_norad_cat_id": 37948,
        "meta_element_set_no": 999,
        "meta_rev_at_epoch": 5139,
        "meta_bstar": 0,
        "meta_mean_motion_dot": -1.42e-06,
        "meta_mean_motion_ddot": 0,
        "tle_line1": "1 37948U 11073A   25359.74083681 -.00000142  00000+0  00000+0 0  9990",
        "tle_line2": "2 37948  47.9959 273.6993 0109668 222.1113 319.0848  1.00288091 51397"
      },
      "geometry": {
        "type": "Point",
        "coordinates": [
          -2.6089709711382407,
          47.85463521901379
        ]
      }
    },
    {
      "type": "Feature",
      "properties": {
        "norad_id": 38091,
        "name": "BEIDOU-2 G5 (C05)",
        "group": "beidou",
        "lat": -3.045497422138326,
        "lon": -34.582690806542736,
        "alt_km": 35735.74520986467,
        "timestamp": "2025-12-26T11:25:45.460690+00:00",
        "meta_object_name": "BEIDOU-2 G5 (C05)",
        "meta_object_id": "2012-008A",
        "meta_epoch": "2025-12-25T21:54:09.656928",
        "meta_mean_motion": 1.00270052,
        "meta_eccentricity": 0.001313,
        "meta_inclination": 3.1399,
        "meta_ra_of_asc_node": 70.6602,
        "meta_arg_of_pericenter": 232.1831,
        "meta_mean_anomaly": 179.0905,
        "meta_ephemeris_type": 0,
        "meta_classification_type": "U",
        "meta_norad_cat_id": 38091,
        "meta_element_set_no": 999,
        "meta_rev_at_epoch": 5063,
        "meta_bstar": 0,
        "meta_mean_motion_dot": 7.8e-07,
        "meta_mean_motion_ddot": 0,
        "tle_line1": "1 38091U 12008A   25359.91261177  .00000078  00000+0  00000+0 0  9993",
        "tle_line2": "2 38091   3.1399  70.6602 0013130 232.1831 179.0905  1.00270052 50639"
      },
      "geometry": {
        "type": "Point",
        "coordinates": [
          -34.582690806542736,
          -3.045497422138326
        ]
      }
    }
  ]
}